NORAD_CAT_ID,OBJECT_NAME,OBJECT_TYPE,EPOCH,MEAN_MOTION,ECCENTRICITY,INCLINATION,RA_OF_ASC_NODE,ARG_OF_PERICENTER,MEAN_ANOMALY,BSTAR,MEAN_MOTION_DOT,MEAN_MOTION_DDOT,TLE_LINE0,TLE_LINE1,TLE_LINE2,SEMIMAJOR_AXIS,PERIOD,APOGEE,PERIGEE,DECAYED
53702.0,STARLINK-4724,PAYLOAD,2023-06-20 22:26:37,15.08851708,9.31e-05,53.2166,5.6691,89.7847,270.3252,0.00042071,6.416e-05,0.0,0 STARLINK-4724,1 53702U 22107C   23171.93515778  .00006416  00000-0  42071-3 0  9992,2 53702  53.2166   5.6691 0000931  89.7847 270.3252 15.08851708 45222,6917.845,95.437,540.354,539.066,0.0
53702.0,STARLINK-4724,PAYLOAD,2023-06-21 19:06:38,15.08847345,9.13e-05,53.2171,1.8045,83.5742,276.5355,0.00047951,7.353e-05,0.0,0 STARLINK-4724,1 53702U 22107C   23172.79628170  .00007353  00000-0  47951-3 0  9991,2 53702  53.2171   1.8045 0000913  83.5742 276.5355 15.08847345 44576,6917.858,95.437,540.355,539.091,0.0
53702.0,STARLINK-4724,PAYLOAD,2023-06-22 18:57:25,15.08844668,0.0001046,53.2179,357.3399,106.7937,253.317,0.00021005,3.057e-05,0.0,0 STARLINK-4724,1 53702U 22107C   23173.78988208  .00003057  00000-0  21005-3 0  9991,2 53702  53.2179 357.3399 0001046 106.7937 253.3170 15.08844668 44727,6917.866,95.437,540.455,539.008,0.0
53702.0,STARLINK-4724,PAYLOAD,2023-06-23 18:48:13,15.08842684,9.33e-05,53.2173,352.8819,76.885,283.2246,0.0001328,1.827e-05,0.0,0 STARLINK-4724,1 53702U 22107C   23174.78348507  .00001827  00000-0  13280-3 0  9993,2 53702  53.2173 352.8819 0000933  76.8850 283.2246 15.08842684 44871,6917.872,95.437,540.383,539.092,0.0
53702.0,STARLINK-4724,PAYLOAD,2023-06-24 17:03:37,15.08836579,0.0001082,53.2176,348.7175,74.8534,285.2578,3.487e-05,2.67e-06,0.0,0 STARLINK-4724,1 53702U 22107C   23175.71084989  .00000267  00000-0  34870-4 0  9994,2 53702  53.2176 348.7175 0001082  74.8534 285.2578 15.08836579 45019,6917.891,95.438,540.504,539.007,0.0
53702.0,STARLINK-4724,PAYLOAD,2023-06-25 18:29:47,15.08846013,9.82e-05,53.2169,343.964,88.7684,271.342,0.00019774,2.861e-05,0.0,0 STARLINK-4724,1 53702U 22107C   23176.77068668  .00002861  00000-0  19774-3 0  9994,2 53702  53.2169 343.9640 0000982  88.7684 271.3420 15.08846013 45176,6917.862,95.437,540.406,539.048,0.0
53702.0,STARLINK-4724,PAYLOAD,2023-06-26 05:37:29,15.08838564,0.0001066,53.2168,341.8821,92.4299,267.6815,8.1933e-05,1.016e-05,0.0,0 STARLINK-4724,1 53702U 22107C   23177.23437065  .00001016  00000-0  81933-4 0  9995,2 53702  53.2168 341.8821 0001066  92.4299 267.6815 15.08838564 45247,6917.885,95.438,540.487,539.012,0.0
53702.0,STARLINK-4724,PAYLOAD,2023-06-27 16:35:58,15.08847218,8.99e-05,53.2176,335.3393,92.0921,268.0174,4.771e-05,4.72e-06,0.0,0 STARLINK-4724,1 53702U 22107C   23178.69164780  .00000472  00000-0  47710-4 0  9997,2 53702  53.2176 335.3393 0000899  92.0921 268.0174 15.08847218 45462,6917.858,95.437,540.345,539.101,0.0
53702.0,STARLINK-4724,PAYLOAD,2023-06-28 21:12:53,15.08856208,9.26e-05,53.2184,329.9858,88.9833,271.1265,0.00017025,2.424e-05,0.0,0 STARLINK-4724,1 53702U 22107C   23179.88395516  .00002424  00000-0  17025-3 0  9996,2 53702  53.2184 329.9858 0000926  88.9833 271.1265 15.08856208 45648,6917.831,95.437,540.336,539.055,0.0
53702.0,STARLINK-4724,PAYLOAD,2023-06-29 16:17:32,15.08840461,9.02e-05,53.2171,326.4191,82.4921,277.6173,-2.4963e-06,-3.27e-06,0.0,0 STARLINK-4724,1 53702U 22107C   23180.67885032 -.00000327  00000-0 -24963-5 0  9995,2 53702  53.2171 326.4191 0000902  82.4921 277.6173 15.08840461 45763,6917.879,95.438,540.368,539.12,0.0
53702.0,STARLINK-4724,PAYLOAD,2023-06-30 19:19:05,15.08846743,9.61e-05,53.2162,321.3629,87.2924,272.8178,0.0001013,1.325e-05,0.0,0 STARLINK-4724,1 53702U 22107C   23181.80492418  .00001325  00000-0  10130-3 0  9999,2 53702  53.2162 321.3629 0000961  87.2924 272.8178 15.08846743 45934,6917.86,95.437,540.39,539.06,0.0
53702.0,STARLINK-4724,PAYLOAD,2023-07-01 09:37:34,15.08830305,9.19e-05,53.2164,318.6859,98.4381,261.6715,5.6014e-05,6.04e-06,0.0,0 STARLINK-4724,1 53702U 22107C   23182.40109458  .00000604  00000-0  56014-4 0  9996,2 53702  53.2164 318.6859 0000919  98.4381 261.6715 15.08830305 46025,6917.91,95.438,540.411,539.139,0.0
53702.0,STARLINK-4724,PAYLOAD,2023-07-02 15:49:54,15.08840832,8.52e-05,53.2171,313.0369,89.4502,270.6587,6.6861e-05,7.77e-06,0.0,0 STARLINK-4724,1 53702U 22107C   23183.65965339  .00000777  00000-0  66861-4 0  9994,2 53702  53.2171 313.0369 0000852  89.4502 270.6587 15.08840832 46213,6917.878,95.438,540.332,539.153,0.0
53702.0,STARLINK-4724,PAYLOAD,2023-07-03 17:16:04,15.08846061,9.1e-05,53.2179,308.2802,90.758,269.3516,0.00022452,3.288e-05,0.0,0 STARLINK-4724,1 53702U 22107C   23184.71949322  .00003288  00000-0  22452-3 0  9993,2 53702  53.2179 308.2802 0000910  90.7580 269.3516 15.08846061 46379,6917.862,95.437,540.356,539.097,0.0
53702.0,STARLINK-4724,PAYLOAD,2023-07-04 12:20:42,15.08838811,8.78e-05,53.218,304.7122,89.2071,270.9022,0.000103,1.352e-05,0.0,0 STARLINK-4724,1 53702U 22107C   23185.51437752  .00001352  00000-0  10300-3 0  9990,2 53702  53.2180 304.7122 0000878  89.2071 270.9022 15.08838811 46495,6917.884,95.438,540.356,539.142,0.0
53702.0,STARLINK-4724,PAYLOAD,2023-07-05 16:57:38,15.08851458,9.03e-05,53.217,299.3596,78.6524,281.457,0.00017852,2.555e-05,0.0,0 STARLINK-4724,1 53702U 22107C   23186.70669039  .00002555  00000-0  17852-3 0  9992,2 53702  53.2170 299.3596 0000903  78.6524 281.4570 15.08851458 46679,6917.845,95.437,540.335,539.086,0.0
53702.0,STARLINK-4724,PAYLOAD,2023-07-06 00:54:34,15.08842344,8.39e-05,53.2166,297.873,78.3804,281.7282,5.5187e-05,5.91e-06,0.0,0 STARLINK-4724,1 53702U 22107C   23187.03789465  .00000591  00000-0  55187-4 0  9997,2 53702  53.2166 297.8730 0000839  78.3804 281.7282 15.08842344 46726,6917.873,95.437,540.319,539.158,0.0
53702.0,STARLINK-4724,PAYLOAD,2023-07-06 13:37:39,15.08837722,9.06e-05,53.2164,295.4942,72.8819,287.2272,1.9802e-05,2.7e-07,0.0,0 STARLINK-4724,1 53702U 22107C   23187.56781848  .00000027  00000-0  19802-4 0  9990,2 53702  53.2164 295.4942 0000906  72.8819 287.2272 15.08837722 46806,6917.887,95.438,540.379,539.126,0.0
53702.0,STARLINK-4724,PAYLOAD,2023-07-07 18:14:35,15.08854949,9.58e-05,53.2175,290.139,92.3053,267.8049,0.00020279,2.942e-05,0.0,0 STARLINK-4724,1 53702U 22107C   23188.76012958  .00002942  00000-0  20279-3 0  9999,2 53702  53.2175 290.1390 0000958  92.3053 267.8049 15.08854949 46986,6917.835,95.437,540.362,539.037,0.0
53702.0,STARLINK-4724,PAYLOAD,2023-07-08 18:05:22,15.08849026,9.2e-05,53.2174,285.6798,84.9545,275.1552,0.00017546,2.506e-05,0.0,0 STARLINK-4724,1 53702U 22107C   23189.75373242  .00002506  00000-0  17546-3 0  9994,2 53702  53.2174 285.6798 0000920  84.9545 275.1552 15.08849026 47137,6917.853,95.437,540.354,539.081,0.0
53702.0,STARLINK-4724,PAYLOAD,2023-07-09 05:13:04,15.08839458,0.0001732,53.217,283.5977,95.6797,264.4392,6.646e-05,7.7e-06,0.0,0 STARLINK-4724,1 53702U 22107C   23190.21741836  .00000770  00000-0  66460-4 0  9996,2 53702  53.2170 283.5977 0001732  95.6797 264.4392 15.08839458 47208,6917.882,95.438,540.945,538.549,0.0
53702.0,STARLINK-4724,PAYLOAD,2023-07-09 17:56:10,15.08836475,0.0001039,53.2169,281.2199,79.0462,281.0647,3.5111e-05,2.71e-06,0.0,0 STARLINK-4724,1 53702U 22107C   23190.74734146  .00000271  00000-0  35111-4 0  9995,2 53702  53.2169 281.2199 0001039  79.0462 281.0647 15.08836475 47284,6917.891,95.438,540.475,539.037,0.0
53702.0,STARLINK-4724,PAYLOAD,2023-07-10 16:11:34,15.08849468,9.62e-05,53.2162,277.0564,88.486,271.6243,0.00037787,5.733e-05,0.0,0 STARLINK-4724,1 53702U 22107C   23191.67469919  .00005733  00000-0  37787-3 0  9999,2 53702  53.2162 277.0564 0000962  88.4860 271.6243 15.08849468 47425,6917.851,95.437,540.382,539.051,0.0
53702.0,STARLINK-4724,PAYLOAD,2023-07-10 22:33:06,15.08841244,8.76e-05,53.2161,275.8655,80.4278,279.6813,0.00019725,2.853e-05,0.0,0 STARLINK-4724,1 53702U 22107C   23191.93966156  .00002853  00000-0  19725-3 0  9995,2 53702  53.2161 275.8655 0000876  80.4278 279.6813 15.08841244 47469,6917.877,95.437,540.348,539.136,0.0
53702.0,STARLINK-4724,PAYLOAD,2023-07-12 04:45:26,15.08839379,8.29e-05,53.2161,270.2159,83.4772,276.6314,1.9275e-05,1.9e-07,0.0,0 STARLINK-4724,1 53702U 22107C   23193.19821977  .00000019  00000-0  19275-4 0  9999,2 53702  53.2161 270.2159 0000829  83.4772 276.6314 15.08839379 47657,6917.882,95.438,540.321,539.174,0.0
53702.0,STARLINK-4724,PAYLOAD,2023-07-12 14:17:44,15.08852072,9.68e-05,53.2158,268.4324,83.0493,277.061,0.00037426,5.675e-05,0.0,0 STARLINK-4724,1 53702U 22107C   23193.59565648  .00005675  00000-0  37426-3 0  9993,2 53702  53.2158 268.4324 0000968  83.0493 277.0610 15.08852072 47712,6917.843,95.437,540.378,539.039,0.0
53702.0,STARLINK-4724,PAYLOAD,2023-07-13 10:57:46,15.08836476,0.0001151,53.2162,264.5676,95.5763,264.536,1.0724e-05,-1.17e-06,0.0,0 STARLINK-4724,1 53702U 22107C   23194.45678440 -.00000117  00000-0  10724-4 0  9994,2 53702  53.2162 264.5676 0001151  95.5763 264.5360 15.08836476 47844,6917.891,95.438,540.552,538.96,0.0
53702.0,STARLINK-4724,PAYLOAD,2023-07-14 15:34:42,15.08847469,0.0001039,53.217,259.2132,105.93,254.1807,9.0072e-05,1.146e-05,0.0,0 STARLINK-4724,1 53702U 22107C   23195.64910106  .00001146  00000-0  90072-4 0  9990,2 53702  53.2170 259.2132 0001039 105.9300 254.1807 15.08847469 48025,6917.858,95.437,540.441,539.004,0.0
53702.0,STARLINK-4724,PAYLOAD,2023-07-14 21:56:15,15.08833214,8.94e-05,53.2162,258.0242,95.3171,264.7923,7.0049e-05,8.27e-06,0.0,0 STARLINK-4724,1 53702U 22107C   23195.91407069  .00000827  00000-0  70049-4 0  9996,2 53702  53.2162 258.0242 0000894  95.3171 264.7923 15.08833214 48064,6917.901,95.438,540.385,539.148,0.0
53702.0,STARLINK-4724,PAYLOAD,2023-07-16 04:08:35,15.08836696,0.000103,53.2171,252.3737,93.5046,266.6064,9.894e-05,1.287e-05,0.0,0 STARLINK-4724,1 53702U 22107C   23197.17263258  .00001287  00000-0  98940-4 0  9997,2 53702  53.2171 252.3737 0001030  93.5046 266.6064 15.08836696 48259,6917.89,95.438,540.468,539.043,0.0
